start=new Date('2023-01-14T00:00:00.000Z').valueOf();
sats=[{"DECAY_DATE":null,"FILE":"3743722","SITE":"AFWTR","OBJECT_TYPE":"PAYLOAD","MEAN_MOTION":"15.01264282","EPOCH":"2023-01-13T21:09:30.189888","INCLINATION":"97.6590","NORAD_CAT_ID":"53197","OBJECT_ID":"2022-084J","TLE_LINE2":"2 53197  97.6590  77.1380 0001319  99.5916 260.5457 15.01264282 26651","PERIOD":"95.919","MEAN_MOTION_DOT":"0.00004734","APOAPSIS":"563.914","LAUNCH_DATE":"2022-07-22","COUNTRY_CODE":"US","OBJECT_NAME":"STARLINK-4403","CLASSIFICATION_TYPE":"U","REV_AT_EPOCH":"2665","TLE_LINE1":"1 53197U 22084J   23013.88159942  .00004734  00000-0  37287-3 0  9994","GP_ID":"222975525","BSTAR":"0.00037287000000","TIME_SYSTEM":"UTC","ECCENTRICITY":"0.00013190","RCS_SIZE":"LARGE","CENTER_NAME":"EARTH","RA_OF_ASC_NODE":"77.1380","ARG_OF_PERICENTER":"99.5916","MEAN_ANOMALY":"260.5457","ELEMENT_SET_NO":"999","MEAN_MOTION_DDOT":"0.0000000000000","SEMIMAJOR_AXIS":"6941.134","EPHEMERIS_TYPE":"0","PERIAPSIS":"562.083","REF_FRAME":"TEME","MEAN_ELEMENT_THEORY":"SGP4"},{"COUNTRY_CODE":"US","LAUNCH_DATE":"2022-07-22","APOAPSIS":"563.662","BSTAR":"0.00065691000000","GP_ID":"222976729","CLASSIFICATION_TYPE":"U","REV_AT_EPOCH":"2731","OBJECT_NAME":"STARLINK-4385","TLE_LINE1":"1 53198U 22084K   23013.88530040  .00008390  00000-0  65691-3 0  9999","OBJECT_TYPE":"PAYLOAD","EPOCH":"2023-01-13T21:14:49.954560","MEAN_MOTION":"15.01266304","FILE":"3743722","DECAY_DATE":null,"SITE":"AFWTR","NORAD_CAT_ID":"53198","TLE_LINE2":"2 53198  97.6580  77.1433 0000965 113.1279 247.0047 15.01266304 27317","MEAN_MOTION_DOT":"0.00008390","PERIOD":"95.919","OBJECT_ID":"2022-084K","INCLINATION":"97.6580","ELEMENT_SET_NO":"999","EPHEMERIS_TYPE":"0","SEMIMAJOR_AXIS":"6941.127","MEAN_MOTION_DDOT":"0.0000000000000","RA_OF_ASC_NODE":"77.1433","MEAN_ANOMALY":"247.0047","ARG_OF_PERICENTER":"113.1279","MEAN_ELEMENT_THEORY":"SGP4","REF_FRAME":"TEME","PERIAPSIS":"562.323","ECCENTRICITY":"0.00009650","TIME_SYSTEM":"UTC","CENTER_NAME":"EARTH","RCS_SIZE":"LARGE"},{"OBJECT_NAME":"STARLINK-4395","CLASSIFICATION_TYPE":"U","REV_AT_EPOCH":"2665","TLE_LINE1":"1 53199U 22084L   23013.87974832  .00006264  00000-0  49185-3 0  9998","BSTAR":"0.00049185000000","GP_ID":"222976490","APOAPSIS":"564.036","LAUNCH_DATE":"2022-07-22","COUNTRY_CODE":"US","INCLINATION":"97.6589","NORAD_CAT_ID":"53199","TLE_LINE2":"2 53199  97.6589  77.1353 0001482 104.7872 255.3517 15.01261466 26652","PERIOD":"95.919","OBJECT_ID":"2022-084L","MEAN_MOTION_DOT":"0.00006264","FILE":"3743722","DECAY_DATE":null,"SITE":"AFWTR","OBJECT_TYPE":"PAYLOAD","EPOCH":"2023-01-13T21:06:50.254848","MEAN_MOTION":"15.01261466","MEAN_ELEMENT_THEORY":"SGP4","PERIAPSIS":"561.979","REF_FRAME":"TEME","RA_OF_ASC_NODE":"77.1353","ARG_OF_PERICENTER":"104.7872","MEAN_ANOMALY":"255.3517","ELEMENT_SET_NO":"999","EPHEMERIS_TYPE":"0","SEMIMAJOR_AXIS":"6941.142","MEAN_MOTION_DDOT":"0.0000000000000","RCS_SIZE":"LARGE","CENTER_NAME":"EARTH","TIME_SYSTEM":"UTC","ECCENTRICITY":"0.00014820"},{"REF_FRAME":"TEME","PERIAPSIS":"561.928","MEAN_ELEMENT_THEORY":"SGP4","SEMIMAJOR_AXIS":"6941.111","MEAN_MOTION_DDOT":"0.0000000000000","EPHEMERIS_TYPE":"0","ELEMENT_SET_NO":"999","MEAN_ANOMALY":"253.6690","ARG_OF_PERICENTER":"106.4700","RA_OF_ASC_NODE":"77.1407","CENTER_NAME":"EARTH","RCS_SIZE":"LARGE","ECCENTRICITY":"0.00015100","TIME_SYSTEM":"UTC","GP_ID":"222975775","BSTAR":"0.00126810000000","TLE_LINE1":"1 53200U 22084M   23013.88345253  .00016271  00000-0  12681-2 0  9990","OBJECT_NAME":"STARLINK-4417","CLASSIFICATION_TYPE":"U","REV_AT_EPOCH":"2731","COUNTRY_CODE":"US","LAUNCH_DATE":"2022-07-22","APOAPSIS":"564.024","TLE_LINE2":"2 53200  97.6575  77.1407 0001510 106.4700 253.6690 15.01271591 27318","OBJECT_ID":"2022-084M","PERIOD":"95.919","MEAN_MOTION_DOT":"0.00016271","NORAD_CAT_ID":"53200","INCLINATION":"97.6575","MEAN_MOTION":"15.01271591","EPOCH":"2023-01-13T21:12:10.298592","OBJECT_TYPE":"PAYLOAD","SITE":"AFWTR","DECAY_DATE":null,"FILE":"3743722"},{"MEAN_ANOMALY":"245.8272","ARG_OF_PERICENTER":"114.3092","RA_OF_ASC_NODE":"76.8678","EPHEMERIS_TYPE":"0","SEMIMAJOR_AXIS":"6941.172","MEAN_MOTION_DDOT":"0.0000000000000","ELEMENT_SET_NO":"999","MEAN_ELEMENT_THEORY":"SGP4","PERIAPSIS":"562.106","REF_FRAME":"TEME","TIME_SYSTEM":"UTC","ECCENTRICITY":"0.00013420","RCS_SIZE":"LARGE","CENTER_NAME":"EARTH","APOAPSIS":"563.969","COUNTRY_CODE":"US","LAUNCH_DATE":"2022-07-22","TLE_LINE1":"1 53201U 22084N   23013.60943372  .00015894  00000-0  12395-2 0  9999","CLASSIFICATION_TYPE":"U","OBJECT_NAME":"STARLINK-4405","REV_AT_EPOCH":"2661","BSTAR":"0.00123950000000","GP_ID":"222976016","SITE":"AFWTR","FILE":"3743722","DECAY_DATE":null,"EPOCH":"2023-01-13T14:37:35.073408","MEAN_MOTION":"15.01251737","OBJECT_TYPE":"PAYLOAD","INCLINATION":"97.6585","TLE_LINE2":"2 53201  97.6585  76.8678 0001342 114.3092 245.8272 15.01251737 26612","PERIOD":"95.920","MEAN_MOTION_DOT":"0.00015894","OBJECT_ID":"2022-084N","NORAD_CAT_ID":"53201"},{"CLASSIFICATION_TYPE":"U","OBJECT_NAME":"STARLINK-4411","REV_AT_EPOCH":"2667","TLE_LINE1":"1 53202U 22084P   23013.89632483  .00001525  00000-0  12589-3 0  9991","BSTAR":"0.00012589000000","GP_ID":"222976255","APOAPSIS":"567.210","LAUNCH_DATE":"2022-07-22","COUNTRY_CODE":"US","INCLINATION":"97.6592","NORAD_CAT_ID":"53202","TLE_LINE2":"2 53202  97.6592  77.4235 0002445 109.2531 250.8957 15.00449056 26677","MEAN_MOTION_DOT":"0.00001525","PERIOD":"95.971","OBJECT_ID":"2022-084P","DECAY_DATE":null,"FILE":"3743722","SITE":"AFWTR","OBJECT_TYPE":"PAYLOAD","EPOCH":"2023-01-13T21:30:42.465312","MEAN_MOTION":"15.00449056","MEAN_ELEMENT_THEORY":"SGP4","REF_FRAME":"TEME","PERIAPSIS":"563.815","RA_OF_ASC_NODE":"77.4235","MEAN_ANOMALY":"250.8957","ARG_OF_PERICENTER":"109.2531","ELEMENT_SET_NO":"999","EPHEMERIS_TYPE":"0","MEAN_MOTION_DDOT":"0.0000000000000","SEMIMAJOR_AXIS":"6943.648","RCS_SIZE":"LARGE","CENTER_NAME":"EARTH","TIME_SYSTEM":"UTC","ECCENTRICITY":"0.00024450"},{"MEAN_MOTION_DDOT":"0.0000000000000","SEMIMAJOR_AXIS":"6941.126","EPHEMERIS_TYPE":"0","ELEMENT_SET_NO":"999","MEAN_ANOMALY":"247.6466","ARG_OF_PERICENTER":"112.4959","RA_OF_ASC_NODE":"76.6643","REF_FRAME":"TEME","PERIAPSIS":"561.675","MEAN_ELEMENT_THEORY":"SGP4","ECCENTRICITY":"0.00018960","TIME_SYSTEM":"UTC","CENTER_NAME":"EARTH","RCS_SIZE":"LARGE","COUNTRY_CODE":"US","LAUNCH_DATE":"2022-07-22","APOAPSIS":"564.307","GP_ID":"222947748","BSTAR":"0.00049043000000","TLE_LINE1":"1 53203U 22084Q   23013.40577212  .00006247  00000-0  49043-3 0  9998","CLASSIFICATION_TYPE":"U","OBJECT_NAME":"STARLINK-4409","REV_AT_EPOCH":"2696","MEAN_MOTION":"15.01266661","EPOCH":"2023-01-13T09:44:18.711168","OBJECT_TYPE":"PAYLOAD","SITE":"AFWTR","FILE":"3743544","DECAY_DATE":null,"TLE_LINE2":"2 53203  97.6577  76.6643 0001896 112.4959 247.6466 15.01266661 26965","PERIOD":"95.919","OBJECT_ID":"2022-084Q","MEAN_MOTION_DOT":"0.00006247","NORAD_CAT_ID":"53203","INCLINATION":"97.6577"},{"PERIAPSIS":"561.994","REF_FRAME":"TEME","MEAN_ELEMENT_THEORY":"SGP4","MEAN_ANOMALY":"252.5816","ARG_OF_PERICENTER":"107.5570","RA_OF_ASC_NODE":"77.0018","MEAN_MOTION_DDOT":"0.0000000000000","SEMIMAJOR_AXIS":"6941.155","EPHEMERIS_TYPE":"0","ELEMENT_SET_NO":"999","RCS_SIZE":"LARGE","CENTER_NAME":"EARTH","TIME_SYSTEM":"UTC","ECCENTRICITY":"0.00014780","TLE_LINE1":"1 53204U 22084R   23013.74459151  .00002608  00000-0  20762-3 0  9991","CLASSIFICATION_TYPE":"U","REV_AT_EPOCH":"2729","OBJECT_NAME":"STARLINK-4410","GP_ID":"222975284","BSTAR":"0.00020762000000","APOAPSIS":"564.046","LAUNCH_DATE":"2022-07-22","COUNTRY_CODE":"US","INCLINATION":"97.6599","TLE_LINE2":"2 53204  97.6599  77.0018 0001478 107.5570 252.5816 15.01257351 27298","PERIOD":"95.920","OBJECT_ID":"2022-084R","MEAN_MOTION_DOT":"0.00002608","NORAD_CAT_ID":"53204","SITE":"AFWTR","FILE":"3743722","DECAY_DATE":null,"MEAN_MOTION":"15.01257351","EPOCH":"2023-01-13T17:52:12.706464","OBJECT_TYPE":"PAYLOAD"},{"FILE":"3743722","DECAY_DATE":null,"SITE":"AFWTR","OBJECT_TYPE":"PAYLOAD","EPOCH":"2023-01-13T14:26:55.427424","MEAN_MOTION":"15.01242466","INCLINATION":"97.6583","NORAD_CAT_ID":"53205","TLE_LINE2":"2 53205  97.6583  76.8608 0001777  94.9445 265.1982 15.01242466 26616","PERIOD":"95.921","MEAN_MOTION_DOT":"0.00003817","OBJECT_ID":"2022-084S","APOAPSIS":"564.299","COUNTRY_CODE":"US","LAUNCH_DATE":"2022-07-22","OBJECT_NAME":"STARLINK-4397","CLASSIFICATION_TYPE":"U","REV_AT_EPOCH":"2661","TLE_LINE1":"1 53205U 22084S   23013.60203041  .00003817  00000-0  30175-3 0  9994","BSTAR":"0.00030175000000","GP_ID":"222975526","TIME_SYSTEM":"UTC","ECCENTRICITY":"0.00017770","RCS_SIZE":"LARGE","CENTER_NAME":"EARTH","RA_OF_ASC_NODE":"76.8608","ARG_OF_PERICENTER":"94.9445","MEAN_ANOMALY":"265.1982","ELEMENT_SET_NO":"999","EPHEMERIS_TYPE":"0","MEAN_MOTION_DDOT":"0.0000000000000","SEMIMAJOR_AXIS":"6941.201","MEAN_ELEMENT_THEORY":"SGP4","PERIAPSIS":"561.832","REF_FRAME":"TEME"},{"BSTAR":"-0.00004588000000","GP_ID":"222976730","OBJECT_NAME":"STARLINK-4408","CLASSIFICATION_TYPE":"U","REV_AT_EPOCH":"2664","TLE_LINE1":"1 53206U 22084T   23013.80591449 -.00000648  00000-0 -45880-4 0  9990","COUNTRY_CODE":"US","LAUNCH_DATE":"2022-07-22","APOAPSIS":"563.952","NORAD_CAT_ID":"53206","MEAN_MOTION_DOT":"-0.00000648","TLE_LINE2":"2 53206  97.6584  77.0622 0001352 104.8514 255.2860 15.01259523 26644","PERIOD":"95.919","OBJECT_ID":"2022-084T","INCLINATION":"97.6584","OBJECT_TYPE":"PAYLOAD","EPOCH":"2023-01-13T19:20:31.011936","MEAN_MOTION":"15.01259523","FILE":"3743722","DECAY_DATE":null,"SITE":"AFWTR","MEAN_ELEMENT_THEORY":"SGP4","REF_FRAME":"TEME","PERIAPSIS":"562.075","ELEMENT_SET_NO":"999","EPHEMERIS_TYPE":"0","SEMIMAJOR_AXIS":"6941.148","MEAN_MOTION_DDOT":"0.0000000000000","RA_OF_ASC_NODE":"77.0622","MEAN_ANOMALY":"255.2860","ARG_OF_PERICENTER":"104.8514","CENTER_NAME":"EARTH","RCS_SIZE":"LARGE","ECCENTRICITY":"0.00013520","TIME_SYSTEM":"UTC"}];
